#dP2023 10 22 12  0  0.00000000      96 __u+U IGS20 EXT  IAC
## 2285  43200.00000000   900.00000000 60239 0.5000000000000
+  119   C06C07C08C09C10C11C12C13C14C16C19C20C21C22C23C24C25
+        C26C27C28C29C30C32C33C34C35C36C37C38C39C40C41C42C43
+        C44C45C46E02E03E04E05E07E08E09E10E11E12E13E14E15E19
+        E21E24E25E26E27E30E31E33E34E36G01G02G03G04G05G06G07
+        G08G09G10G11G12G13G14G15G16G17G18G19G20G21G22G23G24
+        G25G26G27G28G29G30G31G32J02J03J04R01R02R03R04R05R07
+        R08R09R11R12R13R14R15R16R17R18R19R20R21R22R24R25R26
++        10  9  9  8  9  9  8  9  9  9  7  8  8  8  9  8 10
++         8 10  8  7  9  9  9  8  7  7  9  8 10  9  8  6  8
++         7  8  7  6  7  7  7  7  7  7  7  6  8  7  7  8  7
++         8  7  7  8  8  7  8  7  7  6  8  8  7  7  6  8  7
++         7  6  6  7  6  7  8  7  8  7  7  7  7  8  5  6  6
++         6  7  8  7  6  7  7  6  9 10  9  7  7  8  6  7  8
++         8  8  6  8  9  8  7  8  7  7  8  9  8  6  8  6  7
%c M  cc GPS ccc cccc cccc cccc cccc ccccc ccccc ccccc ccccc
%c cc cc ccc ccc cccc cccc cccc cccc ccccc ccccc ccccc ccccc
%f  0.0000000  0.000000000  0.00000000000  0.000000000000000
%f  0.0000000  0.000000000  0.00000000000  0.000000000000000
%i    0    0    0    0      0      0      0      0         0
%i    0    0    0    0      0      0      0      0         0
/* IAC                                ULTRA-RAPID PREDICTION
/* S/V CLOCKS ARE ALIGNED TO GNSS TIME                      
/* G:C1WC2W R:C1PC2P E:C1XC5X C:C2IC6I J:C1CC2S             
/* PCV:IGS20_2280 OL/AL:FES2004  NONE     YN ORB:CoN CLK:CoN
*  2023 10 23  1 30  0.00000000
PC06 -14732.352229  38953.382545  -7431.700751     66.345650
PC07  -3726.123011  31905.795961 -27133.028660   -200.775015
PC08 -14249.040180  20037.406240  34186.686738    282.181296
PC09 -10732.424249  38293.280268 -14439.001314      7.041015
PC10   4407.323122  34949.657762 -22453.165778      9.531173
PC11   6735.898519 -27095.237438    243.244308    217.649690
PC12  15247.656053 -16186.576320  16914.682199    887.052382
PC13  -6670.872364  22170.394389  35342.673129    371.670013
PC14   -948.681170 -19233.169050 -20209.765358    638.791534
PC16 -18365.098276  38071.212413  -2169.841523   -138.840970
PC19  10054.221996  21799.712448  14229.916771   -972.939018
PC20  -6774.672075  14633.638552  22773.792040    180.787339
PC21  20986.750512   2062.912834 -18264.084208   -969.177411
PC22  22042.810009  16826.272627  -3049.317983   -255.403375
PC23 -18486.695310  -8403.689982  19140.313962   -838.129006
PC24  19528.912840 -15778.200950  12200.957734    521.513093
PC25   -574.206399 -16808.432712  22260.800049    238.882751
PC26  26847.982888  -6521.641032  -4080.598670   -195.560410
PC27 -16686.889972   7275.595435 -21168.004934    217.357661
PC28 -12889.199198 -11966.758109 -21659.307954    163.674845
PC29   1331.819673  26575.952418   8400.154650    191.362204
PC30 -11122.174038  23652.535314  -9803.785090     -6.968563
PC32 -21077.830715  -2009.533395  18186.583451   -530.879466
PC33 -10102.179919 -21743.349410 -14293.380562   -951.357823
PC34  10391.543280 -24458.575525   8484.954008    287.027810
PC35  13432.893869  11422.685322  21629.365723    519.381103
PC36   -747.401411  17003.771960 -22091.238939   -167.541450
PC37 -26947.253439   5376.065555   4791.451749   -861.754481
PC38 -22271.343175  20993.066310  28948.971867    112.895414
PC39 -18817.442450  37777.424975   2904.555354     -5.344966
PC40  -6993.147441  27487.630902 -31083.532564    -41.132257
PC41 -21897.216207 -17148.752556   2345.720499   -872.216609
PC42   8152.531570 -13629.812410 -22912.546571   -515.590068
PC43   -724.129613 -26842.705356  -7571.782778     45.121546
PC44  16527.046721  -7644.572080  21130.063682    269.943068
PC45  18934.706528   7952.503370 -18908.069552    -38.799448
PC46 -18563.716695  16059.949607 -13238.021519    -93.941773
PE02   -423.508288 -17218.333423  24071.428881     72.287428
PE03  -2317.274544 -28461.433036  -7820.397573    -67.335260
PE04  14406.374441  23553.939430 -10675.008412   -240.437652
PE05  11061.614379 -16836.337169 -21691.490802     30.072894
PE07 -18098.828249  -5193.565787  22838.036815    -83.705931
PE08 -14132.753798 -23906.348530  10246.927634   -165.531426
PE09  17987.690193   5354.605370 -22893.318582   -201.036252
PE10  17017.170598   4419.563833  23811.988572   -573.196989
PE11  22312.097366  -5617.674296  18613.805123   3124.599023
PE12   9760.397028  12921.685222  24777.443201   -747.244872
PE13 -22020.847467   5006.565662 -19128.669473    -19.635809
PE14 -14699.342247 -26818.203737 -10484.441027    376.385049
PE15  -9314.513501 -13231.976242 -24777.946367    -63.388275
PE19    473.582039  27833.486430  10069.936017  -1369.194704
PE21 -19395.492597   9401.139122 -20282.950290   -560.016659
PE24  28956.861212   4744.098240   3984.744160   -390.524468
PE25  19720.826941  -9177.828308  20087.340012     -3.638491
PE26 -21405.577550  20366.345712  -1672.101188    259.148172
PE27 -28933.151207  -4272.741872  -4513.008261   -181.265849
PE30 -20964.099028 -15497.981690  13997.328989   -601.624057
PE31  21332.790604  15261.912694 -13713.638598     -8.329020
PE33  -9171.191924  23561.585670  15383.396480      0.829447
PE34   8617.318167 -23481.148157 -15844.817773    -73.857034
PE36  21660.119980 -20035.867248   2385.369888   -133.658757
PG01  12969.080022 -21121.131361  -9399.705568    163.477346
PG02  16308.697509 -20754.191624  -1303.112968   -538.625304
PG03   5903.497811 -13728.237171 -22096.728754    -62.271772
PG04   2143.976488 -24052.866128 -10904.553991    192.087896
PG05 -19857.868912   7033.416779  16051.821532   -147.530858
PG06 -17576.412451   -992.567146 -19852.677481    524.431970
PG07  -3015.847101 -17391.680414  20181.915935     33.195302
PG08   8089.614227 -17386.704313  18124.411715   -148.465855
PG09  -6366.505213 -25704.999513  -1709.377630    -24.709557
PG10  23194.396104  11193.349381   7352.572718    -58.417911
PG11 -22033.568257   9570.194552 -11252.752986   -427.306927
PG12  -9314.063385  12702.123153 -21653.299137   -438.848816
PG13 -13533.935255   8194.383591  21098.084143    587.051942
PG14 -20694.623304 -13544.719142   9932.571382    221.851204
PG15  -5310.496456  19232.981034  16934.896183     89.765052
PG16  23641.082689   -506.239064  12225.814844   -434.722841
PG17 -12692.292349 -19347.516295 -12489.587672    723.760640
PG18   3881.266430  15947.058548  20850.082943   -457.044059
PG19 -14960.655026 -11712.975918 -18894.602202    388.667379
PG20 -25840.997552   1688.780523   5479.399332    405.443764
PG21  17751.288246 -19002.259365   2134.821094    146.140553
PG22 -23583.784479 -11397.499562   3798.728375     97.830155
PG23  13554.020568  15127.907747  17220.170291     86.863142
PG24 -14272.423496  21840.649628  -3933.579646   -352.963193
PG25   5518.057345  16425.958424 -20518.640679    474.001367
PG26  26451.498187   3299.806601   2196.376114    221.553078
PG27  14458.884543  -3989.969015  21662.389119    -59.171986
PG28  16772.352408   2865.262764 -20419.727553    -30.634429
PG29   3891.022425  26170.018900  -1607.264495   -610.153105
PG30 -12302.724581 -10030.772755  21426.888188   -475.920755
PG31  21323.700002  -5433.048327 -15361.275208   -224.947035
PG32  15382.034182  15379.259925 -15199.589498   -576.304505
PJ02 -27796.225043  16285.539495 -22590.333809     -6.179218
PJ03 -25853.679550  32165.529169  -4061.083874     -5.863764
PJ04 -26370.001112  25909.038040  26195.009857     71.464361
PR01  -5826.510721 -19032.315019 -15962.101679     68.240619
PR02 -15796.536305 -19961.747941    869.236325    -22.372309
PR03 -17010.642348  -8947.269694  16772.649666     87.599225
PR04  -8653.551194   6393.620380  23149.482908    207.974924
PR05   4190.218156  18536.996370  17035.697100    121.047855
PR07  16823.091362   8386.875444 -17240.263743     67.467432
PR08   8585.545420  -6630.242034 -23034.676584    -73.035000
PR09  14185.215222   7514.739168 -19777.397724    149.129879
PR11  22062.416819  -8145.060162   9868.895241   -205.871985
PR12   5179.537192 -11508.377259  22194.866609     32.639289
PR13 -12046.270264  -8253.585531  20900.396271    -40.476991
PR14 -24736.431596    740.137994   6233.660043     25.450379
PR15 -21360.019574   8479.920096 -11053.200870     85.182264
PR16  -5487.293469  11399.187941 -22145.141160     19.918247
PR17 -12046.561414   2521.809570 -22321.081344     28.190435
PR18 -13570.610537  17732.546769 -12350.118509    108.213501
PR19  -9610.227161  23497.137844   2428.816033   -251.867387
PR20   2561.242437  15659.316918  19996.194702   -102.273144
PR21  12260.673254  -3371.405642  22124.099876    -47.622020
PR22  14184.965413 -17846.448840  11467.181914     89.950096
PR24  -3877.572511 -15232.755040 -20075.744928    -29.266058
PR25  12449.523159  -1933.921258  22192.406710     -5.997930
PR26   8881.883569  -6263.194905 -23061.996626    -19.672045
EOF
